{"type": "FeatureCollection", "features": [ {"type": "Feature", "properties": {"norad_id": 40701, "name": "GAOFEN-8", "group": "resource", "lat": -30.13441211787117, "lon": -14.295835667018805, "alt_km": 455.8590316076825, "timestamp": "2025-12-17T19:34:07.702008+00:00", "meta": {"OBJECT_NAME": "GAOFEN-8", "OBJECT_ID": "2015-030A", "EPOCH": "2025-12-17T07:43:59.818368", "MEAN_MOTION": 15.38700254, "ECCENTRICITY": 0.00118474, "INCLINATION": 97.6898, "RA_OF_ASC_NODE": 169.6857, "ARG_OF_PERICENTER": 122.7413, "MEAN_ANOMALY": 237.4975, "EPHEMERIS_TYPE": 0, "CLASSIFICATION_TYPE": "U", "NORAD_CAT_ID": 40701, "ELEMENT_SET_NO": 999, "REV_AT_EPOCH": 58341, "BSTAR": 0.00037584235, "MEAN_MOTION_DOT": 0.00014327, "MEAN_MOTION_DDOT": 0}, "tle": {"line1": "1 40701U 15030A   25351.32222012  .00014327  00000+0  37584-3 0  9997", "line2": "2 40701  97.6898 169.6857 0011847 122.7413 237.4975 15.38700254583417"}}, "geometry": {"type": "Point", "coordinates": [-14.295835667018805, -30.13441211787117]}}, {"type": "Feature", "properties": {"norad_id": 40718, "name": "CARBONITE 1 (CBNT-1)", "group": "resource", "lat": -22.027582178732967, "lon": -10.478095870355762, "alt_km": 617.8336496860256, "timestamp": "2025-12-17T19:34:07.702018+00:00", "meta": {"OBJECT_NAME": "CARBONITE 1 (CBNT-1)", "OBJECT_ID": "2015-032D", "EPOCH": "2025-12-17T07:19:24.703392", "MEAN_MOTION": 14.82763664, "ECCENTRICITY": 0.00146956, "INCLINATION": 97.6398, "RA_OF_ASC_NODE": 172.1474, "ARG_OF_PERICENTER": 166.3642, "MEAN_ANOMALY": 193.7972, "EPHEMERIS_TYPE": 0, "CLASSIFICATION_TYPE": "U", "NORAD_CAT_ID": 40718, "ELEMENT_SET_NO": 999, "REV_AT_EPOCH": 56238, "BSTAR": 0.00013075721, "MEAN_MOTION_DOT": 1.008e-05, "MEAN_MOTION_DDOT": 0}, "tle": {"line1": "1 40718U 15032D   25351.30514703  .00001008  00000+0  13076-3 0  9998", "line2": "2 40718  97.6398 172.1474 0014695 166.3642 193.7972 14.82763664562382"}}, "geometry": {"type": "Point", "coordinates": [-10.478095870355762, -22.027582178732967]}}, {"type": "Feature", "properties": {"norad_id": 40878, "name": "YAOGAN-27", "group": "resource", "lat": 76.29792751262119, "lon": -151.81787378382853, "alt_km": 1198.2464580732312, "timestamp": "2025-12-17T19:34:07.702028+00:00", "meta": {"OBJECT_NAME": "YAOGAN-27", "OBJECT_ID": "2015-040A", "EPOCH": "2025-12-17T06:17:38.878656", "MEAN_MOTION": 13.16061154, "ECCENTRICITY": 0.00075846, "INCLINATION": 100.1008, "RA_OF_ASC_NODE": 340.6778, "ARG_OF_PERICENTER": 275.6586, "MEAN_ANOMALY": 84.3663, "EPHEMERIS_TYPE": 0, "CLASSIFICATION_TYPE": "U", "NORAD_CAT_ID": 40878, "ELEMENT_SET_NO": 999, "REV_AT_EPOCH": 49373, "BSTAR": 0.00080183794, "MEAN_MOTION_DOT": 2.62e-06, "MEAN_MOTION_DDOT": 0}, "tle": {"line1": "1 40878U 15040A   25351.26225554  .00000262  00000+0  80184-3 0  9997", "line2": "2 40878 100.1008 340.6778 0007584 275.6586  84.3663 13.16061154493731"}}, "geometry": {"type": "Point", "coordinates": [-151.81787378382853, 76.29792751262119]}}, {"type": "Feature", "properties": {"norad_id": 40894, "name": "GAOFEN-9 01", "group": "resource", "lat": 61.80938157020638, "lon": -134.918217460936, "alt_km": 618.7047392070117, "timestamp": "2025-12-17T19:34:07.702038+00:00", "meta": {"OBJECT_NAME": "GAOFEN-9 01", "OBJECT_ID": "2015-047A", "EPOCH": "2025-12-17T07:42:15.735744", "MEAN_MOTION": 14.82433792, "ECCENTRICITY": 0.00280285, "INCLINATION": 97.6537, "RA_OF_ASC_NODE": 30.0786, "ARG_OF_PERICENTER": 19.6596, "MEAN_ANOMALY": 340.5692, "EPHEMERIS_TYPE": 0, "CLASSIFICATION_TYPE": "U", "NORAD_CAT_ID": 40894, "ELEMENT_SET_NO": 999, "REV_AT_EPOCH": 55324, "BSTAR": 0.00013161748, "MEAN_MOTION_DOT": 1.011e-05, "MEAN_MOTION_DDOT": 0}, "tle": {"line1": "1 40894U 15047A   25351.32101546  .00001011  00000+0  13162-3 0  9998", "line2": "2 40894  97.6537  30.0786 0028028  19.6596 340.5692 14.82433792553245"}}, "geometry": {"type": "Point", "coordinates": [-134.918217460936, 61.80938157020638]}}, {"type": "Feature", "properties": {"norad_id": 41026, "name": "YAOGAN-28", "group": "resource", "lat": -45.83362465665891, "lon": 137.02723047286474, "alt_km": 507.17237128277975, "timestamp": "2025-12-17T19:34:07.702048+00:00", "meta": {"OBJECT_NAME": "YAOGAN-28", "OBJECT_ID": "2015-064A", "EPOCH": "2025-12-17T08:44:39.737184", "MEAN_MOTION": 15.24430429, "ECCENTRICITY": 0.00125544, "INCLINATION": 97.2803, "RA_OF_ASC_NODE": 129.0259, "ARG_OF_PERICENTER": 111.2423, "MEAN_ANOMALY": 249.0157, "EPHEMERIS_TYPE": 0, "CLASSIFICATION_TYPE": "U", "NORAD_CAT_ID": 41026, "ELEMENT_SET_NO": 999, "REV_AT_EPOCH": 56295, "BSTAR": 0.00026810417, "MEAN_MOTION_DOT": 6.522e-05, "MEAN_MOTION_DDOT": 0}, "tle": {"line1": "1 41026U 15064A   25351.36434881  .00006522  00000+0  26810-3 0  9996", "line2": "2 41026  97.2803 129.0259 0012554 111.2423 249.0157 15.24430429562952"}}, "geometry": {"type": "Point", "coordinates": [137.02723047286474, -45.83362465665891]}}, {"type": "Feature", "properties": {"norad_id": 41038, "name": "YAOGAN-29", "group": "resource", "lat": 12.907503085566589, "lon": 13.151757239297696, "alt_km": 621.6125465446439, "timestamp": "2025-12-17T19:34:07.702058+00:00", "meta": {"OBJECT_NAME": "YAOGAN-29", "OBJECT_ID": "2015-069A", "EPOCH": "2025-12-17T08:10:26.487840", "MEAN_MOTION": 14.82886235, "ECCENTRICITY": 2.74e-05, "INCLINATION": 98.022, "RA_OF_ASC_NODE": 14.5275, "ARG_OF_PERICENTER": 201.8229, "MEAN_ANOMALY": 158.2973, "EPHEMERIS_TYPE": 0, "CLASSIFICATION_TYPE": "U", "NORAD_CAT_ID": 41038, "ELEMENT_SET_NO": 999, "REV_AT_EPOCH": 54367, "BSTAR": 3.250751e-06, "MEAN_MOTION_DOT": -2.8e-07, "MEAN_MOTION_DDOT": 0}, "tle": {"line1": "1 41038U 15069A   25351.34058435 -.00000028  00000+0  32508-5 0  9998", "line2": "2 41038  98.0220  14.5275 0000274 201.8229 158.2973 14.82886235543677"}}, "geometry": {"type": "Point", "coordinates": [13.151757239297696, 12.907503085566589]}}, {"type": "Feature", "properties": {"norad_id": 41167, "name": "KENT RIDGE 1", "group": "resource", "lat": -6.910865533943842, "lon": 146.52428383196977, "alt_km": 502.58709286865997, "timestamp": "2025-12-17T19:34:07.702068+00:00", "meta": {"OBJECT_NAME": "KENT RIDGE 1", "OBJECT_ID": "2015-077B", "EPOCH": "2025-12-17T03:57:31.233312", "MEAN_MOTION": 15.21671932, "ECCENTRICITY": 0.00084828, "INCLINATION": 14.978, "RA_OF_ASC_NODE": 178.304, "ARG_OF_PERICENTER": 193.5455, "MEAN_ANOMALY": 166.4639, "EPHEMERIS_TYPE": 0, "CLASSIFICATION_TYPE": "U", "NORAD_CAT_ID": 41167, "ELEMENT_SET_NO": 999, "REV_AT_EPOCH": 55331, "BSTAR": 0.00014001964, "MEAN_MOTION_DOT": 4.017e-05, "MEAN_MOTION_DDOT": 0}, "tle": {"line1": "1 41167U 15077B   25351.16494483  .00004017  00000+0  14002-3 0  9995", "line2": "2 41167  14.9780 178.3040 0008482 193.5455 166.4639 15.21671932553316"}}, "geometry": {"type": "Point", "coordinates": [146.52428383196977, -6.910865533943842]}}, {"type": "Feature", "properties": {"norad_id": 41194, "name": "GAOFEN-4", "group": "resource", "lat": 0.14232010778830959, "lon": 125.88257142313368, "alt_km": 35777.45734321652, "timestamp": "2025-12-17T19:34:07.702081+00:00", "meta": {"OBJECT_NAME": "GAOFEN-4", "OBJECT_ID": "2015-083A", "EPOCH": "2025-12-17T16:23:22.933248", "MEAN_MOTION": 1.00274135, "ECCENTRICITY": 0.0002937, "INCLINATION": 0.1826, "RA_OF_ASC_NODE": 81.7781, "ARG_OF_PERICENTER": 93.7551, "MEAN_ANOMALY": 262.5686, "EPHEMERIS_TYPE": 0, "CLASSIFICATION_TYPE": "U", "NORAD_CAT_ID": 41194, "ELEMENT_SET_NO": 999, "REV_AT_EPOCH": 3670, "BSTAR": 0, "MEAN_MOTION_DOT": -3.1e-06, "MEAN_MOTION_DDOT": 0}, "tle": {"line1": "1 41194U 15083A   25351.68290432 -.00000310  00000+0  00000+0 0  9999", "line2": "2 41194   0.1826  81.7781 0002937  93.7551 262.5686  1.00274135 36705"}}, "geometry": {"type": "Point", "coordinates": [125.88257142313368, 0.14232010778830959]}}, {"type": "Feature", "properties": {"norad_id": 41240, "name": "JASON-3", "group": "resource", "lat": 62.91247399460292, "lon": -152.45858018458853, "alt_km": 1309.3069627927052, "timestamp": "2025-12-17T19:34:07.702092+00:00", "meta": {"OBJECT_NAME": "JASON-3", "OBJECT_ID": "2016-002A", "EPOCH": "2025-12-17T04:15:27.302976", "MEAN_MOTION": 12.87626743, "ECCENTRICITY": 0.00071763, "INCLINATION": 66.0395, "RA_OF_ASC_NODE": 148.4944, "ARG_OF_PERICENTER": 271.082, "MEAN_ANOMALY": 88.9376, "EPHEMERIS_TYPE": 0, "CLASSIFICATION_TYPE": "U", "NORAD_CAT_ID": 41240, "ELEMENT_SET_NO": 999, "REV_AT_EPOCH": 46381, "BSTAR": 5.7893109e-05, "MEAN_MOTION_DOT": -4.8e-07, "MEAN_MOTION_DDOT": 0}, "tle": {"line1": "1 41240U 16002A   25351.17739934 -.00000048  00000+0  57893-4 0  9997", "line2": "2 41240  66.0395 148.4944 0007176 271.0820  88.9376 12.87626743463816"}}, "geometry": {"type": "Point", "coordinates": [-152.45858018458853, 62.91247399460292]}}, {"type": "Feature", "properties": {"norad_id": 41335, "name": "SENTINEL-3A", "group": "resource", "lat": 51.124857838734066, "lon": -112.38373764959154, "alt_km": 797.393427583369, "timestamp": "2025-12-17T19:34:07.702102+00:00", "meta": {"OBJECT_NAME": "SENTINEL-3A", "OBJECT_ID": "2016-011A", "EPOCH": "2025-12-17T07:11:21.145056", "MEAN_MOTION": 14.26732466, "ECCENTRICITY": 9.187e-05, "INCLINATION": 98.631, "RA_OF_ASC_NODE": 56.2481, "ARG_OF_PERICENTER": 92.4376, "MEAN_ANOMALY": 267.691, "EPHEMERIS_TYPE": 0, "CLASSIFICATION_TYPE": "U", "NORAD_CAT_ID": 41335, "ELEMENT_SET_NO": 999, "REV_AT_EPOCH": 51212, "BSTAR": 6.5493938e-05, "MEAN_MOTION_DOT": 1.15e-06, "MEAN_MOTION_DDOT": 0}, "tle": {"line1": "1 41335U 16011A   25351.29955029  .00000115  00000+0  65494-4 0  9990", "line2": "2 41335  98.6310  56.2481 0000918  92.4376 267.6910 14.26732466512123"}}, "geometry": {"type": "Point", "coordinates": [-112.38373764959154, 51.124857838734066]}}]}